CCSDS_OMM_VERS = 2.0
CREATION_DATE  = 
ORIGINATOR     = 

OBJECT_NAME    = XRISM
OBJECT_ID      = 2023-137A
CENTER_NAME    = EARTH
REF_FRAME      = TEME
TIME_SYSTEM    = UTC
MEAN_ELEMENT_THEORY = SGP/SGP4

EPOCH          = 2026-04-03T09:39:08.199936
MEAN_MOTION    = 15.11803108
ECCENTRICITY   = .0007842
INCLINATION    = 31.0011
RA_OF_ASC_NODE = 123.7853
ARG_OF_PERICENTER = 287.2340
MEAN_ANOMALY   = 72.7440

EPHEMERIS_TYPE = 0
CLASSIFICATION_TYPE = U
NORAD_CAT_ID   = 57800
ELEMENT_SET_NO = 999
REV_AT_EPOCH   = 14153
BSTAR          = .51992E-3
MEAN_MOTION_DOT = .9207E-4
MEAN_MOTION_DDOT = 0

CCSDS_OMM_VERS = 2.0
CREATION_DATE  = 
ORIGINATOR     = 

OBJECT_NAME    = ACS3
OBJECT_ID      = 2024-077B
CENTER_NAME    = EARTH
REF_FRAME      = TEME
TIME_SYSTEM    = UTC
MEAN_ELEMENT_THEORY = SGP/SGP4

EPOCH          = 2026-04-03T09:37:31.740384
MEAN_MOTION    = 13.90817448
ECCENTRICITY   = .0073347
INCLINATION    = 97.1952
RA_OF_ASC_NODE = 28.9594
ARG_OF_PERICENTER = 20.8245
MEAN_ANOMALY   = 339.5881

EPHEMERIS_TYPE = 0
CLASSIFICATION_TYPE = U
NORAD_CAT_ID   = 59588
ELEMENT_SET_NO = 999
REV_AT_EPOCH   = 9763
BSTAR          = .21183E-1
MEAN_MOTION_DOT = .27133E-3
MEAN_MOTION_DDOT = 0

CCSDS_OMM_VERS = 2.0
CREATION_DATE  = 
ORIGINATOR     = 

OBJECT_NAME    = HTV-X1
OBJECT_ID      = 2025-241A
CENTER_NAME    = EARTH
REF_FRAME      = TEME
TIME_SYSTEM    = UTC
MEAN_ELEMENT_THEORY = SGP/SGP4

EPOCH          = 2026-04-03T11:54:09.463104
MEAN_MOTION    = 15.32514940
ECCENTRICITY   = .0007288
INCLINATION    = 51.6362
RA_OF_ASC_NODE = 313.4962
ARG_OF_PERICENTER = 268.5107
MEAN_ANOMALY   = 91.5039

EPHEMERIS_TYPE = 0
CLASSIFICATION_TYPE = U
NORAD_CAT_ID   = 66174
ELEMENT_SET_NO = 999
REV_AT_EPOCH   = 2474
BSTAR          = .17316E-3
MEAN_MOTION_DOT = .5153E-4
MEAN_MOTION_DDOT = 0

CCSDS_OMM_VERS = 2.0
CREATION_DATE  = 
ORIGINATOR     = 

OBJECT_NAME    = SZ-21 MODULE
OBJECT_ID      = 2025-246C
CENTER_NAME    = EARTH
REF_FRAME      = TEME
TIME_SYSTEM    = UTC
MEAN_ELEMENT_THEORY = SGP/SGP4

EPOCH          = 2026-04-03T06:04:09.839424
MEAN_MOTION    = 15.70567905
ECCENTRICITY   = .0002892
INCLINATION    = 41.4748
RA_OF_ASC_NODE = 51.9348
ARG_OF_PERICENTER = 225.3271
MEAN_ANOMALY   = 134.7336

EPHEMERIS_TYPE = 0
CLASSIFICATION_TYPE = U
NORAD_CAT_ID   = 66515
ELEMENT_SET_NO = 999
REV_AT_EPOCH   = 2193
BSTAR          = .47388E-3
MEAN_MOTION_DOT = .60256E-3
MEAN_MOTION_DDOT = 0

