XRISM                   
1 57800U 23137A   26093.40217824  .00009207  00000+0  51992-3 0  9990
2 57800  31.0011 123.7853 0007842 287.2340  72.7440 15.11803108141530
ACS3                    
1 59588U 24077B   26093.40106181  .00027133  00000+0  21183-1 0  9997
2 59588  97.1952  28.9594 0073347  20.8245 339.5881 13.90817448 97639
HTV-X1                  
1 66174U 25241A   26093.49594286  .00005153  00000+0  17316-3 0  9999
2 66174  51.6362 313.4962 0007288 268.5107  91.5039 15.32514940 24749
SZ-21 MODULE            
1 66515U 25246C   26093.25289166  .00060256  00000+0  47388-3 0  9992
2 66515  41.4748  51.9348 0002892 225.3271 134.7336 15.70567905 21933
